[
   {
      "name": "AEROCUBE 7B (OCSD B)",
      "line1": "1 43042U 17071F   21092.93322054  .00009298  00000-0  18763-3 0  9997",
      "line2": "2 43042  51.6366  82.9113 0004377  37.6290 322.5003 15.47254155187138",
      "bstar": 18.763,
      "inc": 51.6366,
      "raan": 82.9113,
      "ecc": 0.0004377,
      "argp": 37.629,
      "nu": 322.5003,
      "mmo": 15.47254155,
      "a": 6802.89973
   },
   {
      "name": "AEROCUBE 7C (OCSD C)",
      "line1": "1 43043U 17071G   21092.68953519  .00008217  00000-0  16784-3 0  9997",
      "line2": "2 43043  51.6360  84.2941 0004635  39.3867 320.7457 15.47076888187063",
      "bstar": 16.784,
      "inc": 51.636,
      "raan": 84.2941,
      "ecc": 0.0004635,
      "argp": 39.3867,
      "nu": 320.7457,
      "mmo": 15.47076888,
      "a": 6803.41938
   },
   {
      "name": "CHEFSAT",
      "line1": "1 43044U 17071H   21092.87124546  .00026973  00000-0  37549-3 0  9990",
      "line2": "2 43044  51.6357  54.4036 0004006  63.9833 296.1571 15.56742313187484",
      "bstar": 37.549,
      "inc": 51.6357,
      "raan": 54.4036,
      "ecc": 0.0004006,
      "argp": 63.9833,
      "nu": 296.1571,
      "mmo": 15.56742313,
      "a": 6775.22967
   },
   {
      "name": "ASGARDIA 1",
      "line1": "1 43049U 17071N   21092.55791014  .00009061  00000-0  18466-3 0  9996",
      "line2": "2 43049  51.6419  84.2768 0002774  69.5792 290.5531 15.47002317187046",
      "bstar": 18.466,
      "inc": 51.6419,
      "raan": 84.2768,
      "ecc": 0.0002774,
      "argp": 69.5792,
      "nu": 290.5531,
      "mmo": 15.47002317,
      "a": 6803.63801
   },
   {
      "name": "ISARA",
      "line1": "1 43050U 17071P   21092.93347812  .00021581  00000-0  32901-3 0  9994",
      "line2": "2 43050  51.6337  59.8688 0002601  75.8370 284.2909 15.54405165187413",
      "bstar": 32.901,
      "inc": 51.6337,
      "raan": 59.8688,
      "ecc": 0.0002601,
      "argp": 75.837,
      "nu": 284.2909,
      "mmo": 15.54405165,
      "a": 6782.01929
   },
   {
      "name": "PROPCUBE 2 (FAUNA)",
      "line1": "1 43052U 17071R   21092.69409032  .00009540  00000-0  18887-3 0  9990",
      "line2": "2 43052  51.6368  80.6956 0002662  57.4157 302.7088 15.47781915187107",
      "bstar": 18.887,
      "inc": 51.6368,
      "raan": 80.6956,
      "ecc": 0.0002662,
      "argp": 57.4157,
      "nu": 302.7088,
      "mmo": 15.47781915,
      "a": 6801.35321
   },
   {
      "name": "CORVUS BC3",
      "line1": "1 43118U 18004H   21092.72021352  .00001427  00000-0  61689-4 0  9994",
      "line2": "2 43118  97.4090 166.1761 0011657 113.1053 247.1415 15.24047424179048",
      "bstar": 6.1689,
      "inc": 97.409,
      "raan": 166.1761,
      "ecc": 0.0011657,
      "argp": 113.1053,
      "nu": 247.1415,
      "mmo": 15.24047424,
      "a": 6871.78433
   },
   {
      "name": "MICROMAS-2A",
      "line1": "1 43131U 18004W   21092.76981441  .00003797  00000-0  14646-3 0  9999",
      "line2": "2 43131  97.4152 169.1854 0010215 108.7553 251.4795 15.26877782179210",
      "bstar": 14.646,
      "inc": 97.4152,
      "raan": 169.1854,
      "ecc": 0.0010215,
      "argp": 108.7553,
      "nu": 251.4795,
      "mmo": 15.26877782,
      "a": 6863.2896
   },
   {
      "name": "SPACEBEE-4",
      "line1": "1 43139U 18004AE  21092.76571843  .00005393  00000-0  19472-3 0  9994",
      "line2": "2 43139  97.4208 171.2314 0009510 108.4591 251.7683 15.28874716179327",
      "bstar": 19.472,
      "inc": 97.4208,
      "raan": 171.2314,
      "ecc": 0.000951,
      "argp": 108.4591,
      "nu": 251.7683,
      "mmo": 15.28874716,
      "a": 6857.31199
   },
   {
      "name": "SPACEBEE-3",
      "line1": "1 43140U 18004AF  21092.88576746  .00007281  00000-0  24999-3 0  9994",
      "line2": "2 43140  97.4233 172.6237 0008983 105.8232 254.3999 15.30400984179416",
      "bstar": 24.999,
      "inc": 97.4233,
      "raan": 172.6237,
      "ecc": 0.0008983,
      "argp": 105.8232,
      "nu": 254.3999,
      "mmo": 15.30400984,
      "a": 6852.75203
   },
   {
      "name": "SPACEBEE-2",
      "line1": "1 43141U 18004AG  21092.79121828  .00007347  00000-0  24818-3 0  9995",
      "line2": "2 43141  97.4251 173.0184 0008891 105.0249 255.1977 15.30927085179423",
      "bstar": 24.818,
      "inc": 97.4251,
      "raan": 173.0184,
      "ecc": 0.0008891,
      "argp": 105.0249,
      "nu": 255.1977,
      "mmo": 15.30927085,
      "a": 6851.18198
   },
   {
      "name": "SPACEBEE-1",
      "line1": "1 43142U 18004AH  21092.80217363  .00008075  00000-0  26724-3 0  9995",
      "line2": "2 43142  97.4258 173.5176 0008730 104.4944 255.7266 15.31557903179442",
      "bstar": 26.724,
      "inc": 97.4258,
      "raan": 173.5176,
      "ecc": 0.000873,
      "argp": 104.4944,
      "nu": 255.7266,
      "mmo": 15.31557903,
      "a": 6849.30061
   },
   {
      "name": "CICERO 7",
      "line1": "1 43143U 18004AJ  21092.83904524  .00003487  00000-0  13517-3 0  9999",
      "line2": "2 43143  97.4127 169.3424 0008493 115.6673 244.5444 15.26783652179244",
      "bstar": 13.517,
      "inc": 97.4127,
      "raan": 169.3424,
      "ecc": 0.0008493,
      "argp": 115.6673,
      "nu": 244.5444,
      "mmo": 15.26783652,
      "a": 6863.57169
   },
   {
      "name": "GOMX-4B",
      "line1": "1 43196U 18015E   21092.87333001  .00000863  00000-0  37567-4 0  9996",
      "line2": "2 43196  97.4720 225.9931 0018884 161.4713 198.7217 15.24818295175998",
      "bstar": 3.7567,
      "inc": 97.472,
      "raan": 225.9931,
      "ecc": 0.0018884,
      "argp": 161.4713,
      "nu": 198.7217,
      "mmo": 15.24818295,
      "a": 6869.46811
   },
   {
      "name": "GOMX-4A",
      "line1": "1 43197U 18015F   21092.85846117  .00001657  00000-0  68571-4 0  9993",
      "line2": "2 43197  97.4706 226.1799 0019061 162.7146 348.4531 15.25232412176019",
      "bstar": 6.8571,
      "inc": 97.4706,
      "raan": 226.1799,
      "ecc": 0.0019061,
      "argp": 162.7146,
      "nu": 348.4531,
      "mmo": 15.25232412,
      "a": 6868.22463
   },
   {
      "name": "TEMPEST-D",
      "line1": "1 43547U 98067NV  21092.80581193  .00048748  00000-0  18837-3 0  9993",
      "line2": "2 43547  51.6331 278.1354 0003813 308.4809  51.5853 15.86738864154936",
      "bstar": 18.837,
      "inc": 51.6331,
      "raan": 278.1354,
      "ecc": 0.0003813,
      "argp": 308.4809,
      "nu": 51.5853,
      "mmo": 15.86738864,
      "a": 6689.56999
   },
   {
      "name": "AEROCUBE 12A",
      "line1": "1 43556U 18046C   21092.77673601  .00003325  00000-0  12017-3 0  9990",
      "line2": "2 43556  51.6397 154.0731 0007372 251.8250 108.1929 15.31316573151685",
      "bstar": 12.017,
      "inc": 51.6397,
      "raan": 154.0731,
      "ecc": 0.0007372,
      "argp": 251.825,
      "nu": 108.1929,
      "mmo": 15.31316573,
      "a": 6850.02021
   },
   {
      "name": "AEROCUBE 12B",
      "line1": "1 43557U 18046D   21092.77835577  .00003002  00000-0  11142-3 0  9993",
      "line2": "2 43557  51.6400 155.5565 0007503 250.7668 109.2501 15.30791983151611",
      "bstar": 11.142,
      "inc": 51.64,
      "raan": 155.5565,
      "ecc": 0.0007503,
      "argp": 250.7668,
      "nu": 109.2501,
      "mmo": 15.30791983,
      "a": 6851.58509
   },
   {
      "name": "SURFSAT",
      "line1": "1 43614U 18070B   21092.73666633  .00005054  00000-0  12092-3 0  9999",
      "line2": "2 43614  93.0240 274.5132 0012036 303.4520  56.5584 15.41424515143004",
      "bstar": 12.092,
      "inc": 93.024,
      "raan": 274.5132,
      "ecc": 0.0012036,
      "argp": 303.452,
      "nu": 56.5584,
      "mmo": 15.41424515,
      "a": 6820.04123
   },
   {
      "name": "CP7 (DAVE)",
      "line1": "1 43615U 18070C   21092.74039522  .00004993  00000-0  12051-3 0  9998",
      "line2": "2 43615  93.0243 274.4801 0012221 303.2288  56.7795 15.41160371142995",
      "bstar": 12.051,
      "inc": 93.0243,
      "raan": 274.4801,
      "ecc": 0.0012221,
      "argp": 303.2288,
      "nu": 56.7795,
      "mmo": 15.41160371,
      "a": 6820.82048
   },
   {
      "name": "ELFIN-B",
      "line1": "1 43616U 18070D   21092.76600445  .00007975  00000-0  17705-3 0  9993",
      "line2": "2 43616  93.0201 274.5976 0012135 301.3087  58.6981 15.43641814143092",
      "bstar": 17.705,
      "inc": 93.0201,
      "raan": 274.5976,
      "ecc": 0.0012135,
      "argp": 301.3087,
      "nu": 58.6981,
      "mmo": 15.43641814,
      "a": 6813.50876
   },
   {
      "name": "ELFIN-A",
      "line1": "1 43617U 18070E   21092.48771156  .00008920  00000-0  19539-3 0  9999",
      "line2": "2 43617  93.0253 275.2568 0011511 298.9013  61.1089 15.44039075143068",
      "bstar": 19.539,
      "inc": 93.0253,
      "raan": 275.2568,
      "ecc": 0.0011511,
      "argp": 298.9013,
      "nu": 61.1089,
      "mmo": 15.44039075,
      "a": 6812.34003
   },
   {
      "name": "CUBEBEL-1 (BSUSAT-1)",
      "line1": "1 43666U 18083E   21092.76521424  .00001542  00000-0  76565-4 0  9995",
      "line2": "2 43666  97.4630 122.0672 0016398  75.2628  13.8012 15.19092749134520",
      "bstar": 7.6565,
      "inc": 97.463,
      "raan": 122.0672,
      "ecc": 0.0016398,
      "argp": 75.2628,
      "nu": 13.8012,
      "mmo": 15.19092749,
      "a": 6886.71823
   },
   {
      "name": "CICERO 10",
      "line1": "1 43690U 18088A   21092.85862392  .00001832  00000-0  80708-4 0  9995",
      "line2": "2 43690  85.0362 247.5167 0013493 336.0603  24.0010 15.20998925132734",
      "bstar": 8.0708,
      "inc": 85.0362,
      "raan": 247.5167,
      "ecc": 0.0013493,
      "argp": 336.0603,
      "nu": 24.001,
      "mmo": 15.20998925,
      "a": 6880.96322
   }
]